$$SOE
2460147.500000000, A.D. 2023-Jul-22 00:00:00.0000, -8.106378819897373E+07, -3.248561173071733E+08, 1.091590029268125E+07,
2460154.500000000, A.D. 2023-Jul-29 00:00:00.0000, -6.891373470563109E+07, -3.260154119523539E+08, 1.201554255983044E+07,
2460161.500000000, A.D. 2023-Aug-05 00:00:00.0000, -5.667352858737079E+07, -3.267478245383114E+08, 1.309944942286253E+07,
2460168.500000000, A.D. 2023-Aug-12 00:00:00.0000, -4.435815497896818E+07, -3.270463739431935E+08, 1.416596021089390E+07,
2460175.500000000, A.D. 2023-Aug-19 00:00:00.0000, -3.198314161422525E+07, -3.269045659718063E+08, 1.521339462325576E+07,
2460182.500000000, A.D. 2023-Aug-26 00:00:00.0000, -1.956455065574884E+07, -3.263164350028743E+08, 1.624005572057654E+07,
2460189.500000000, A.D. 2023-Sep-02 00:00:00.0000, -7.118967440172173E+06, -3.252765868363302E+08, 1.724423323861663E+07,
2460196.500000000, A.D. 2023-Sep-09 00:00:00.0000, 5.336514141619772E+06, -3.237802425743381E+08, 1.822420722711845E+07,
2460203.500000000, A.D. 2023-Sep-16 00:00:00.0000, 1.778431003235716E+07, -3.218232833537209E+08, 1.917825200053135E+07,
2460210.500000000, A.D. 2023-Sep-23 00:00:00.0000, 3.020636880207437E+07, -3.194022953658682E+08, 2.010464039001329E+07,
2460217.500000000, A.D. 2023-Sep-30 00:00:00.0000, 4.258419871200003E+07, -3.165146136578709E+08, 2.100164842562003E+07,
2460224.500000000, A.D. 2023-Oct-07 00:00:00.0000, 5.489889687636135E+07, -3.131583649024312E+08, 2.186756061620824E+07,
2460231.500000000, A.D. 2023-Oct-14 00:00:00.0000, 6.713118171678990E+07, -3.093325120561882E+08, 2.270067545196171E+07,
2460238.500000000, A.D. 2023-Oct-21 00:00:00.0000, 7.926143205973281E+07, -3.050368988787571E+08, 2.349931095111246E+07,
2460245.500000000, A.D. 2023-Oct-28 00:00:00.0000, 9.126973153227614E+07, -3.002722915972998E+08, 2.426181054843546E+07,
2460252.500000000, A.D. 2023-Nov-04 00:00:00.0000, 1.031359170379923E+08, -2.950404180011935E+08, 2.498654935380408E+07,
2460259.500000000, A.D. 2023-Nov-11 00:00:00.0000, 1.148396314689189E+08, -2.893440040551640E+08, 2.567194068607201E+07,
2460266.500000000, A.D. 2023-Nov-18 00:00:00.0000, 1.263603807924275E+08, -2.831868075649033E+08, 2.631644282141665E+07,
2460273.500000000, A.D. 2023-Nov-25 00:00:00.0000, 1.376775954395914E+08, -2.765736483298454E+08, 2.691856590937962E+07,
2460280.500000000, A.D. 2023-Dec-02 00:00:00.0000, 1.487706958075811E+08, -2.695104342454771E+08, 2.747687900418936E+07,
2460287.500000000, A.D. 2023-Dec-09 00:00:00.0000, 1.596191616683273E+08, -2.620041828692411E+08, 2.799001714421387E+07,
2460294.500000000, A.D. 2023-Dec-16 00:00:00.0000, 1.702026054141826E+08, -2.540630379114362E+08, 2.845668839481536E+07,
2460301.500000000, A.D. 2023-Dec-23 00:00:00.0000, 1.805008490562709E+08, -2.456962794688852E+08, 2.887568081588049E+07,
2460308.500000000, A.D. 2023-Dec-30 00:00:00.0000, 1.904940031246159E+08, -2.369143264952761E+08, 2.924586949494207E+07,
2460315.500000000, A.D. 2024-Jan-06 00:00:00.0000, 2.001625451127011E+08, -2.277287334564129E+08, 2.956622354249818E+07,
2460322.500000000, A.D. 2024-Jan-13 00:00:00.0000, 2.094873999894237E+08, -2.181521826218326E+08, 2.983581253459270E+07,
2460329.500000000, A.D. 2024-Jan-20 00:00:00.0000, 2.184500232967811E+08, -2.081984686285657E+08, 3.005381246644034E+07,
2460336.500000000, A.D. 2024-Jan-27 00:00:00.0000, 2.270324840490049E+08, -1.978824744716502E+08, 3.021951138154957E+07,
2460343.500000000, A.D. 2024-Feb-03 00:00:00.0000, 2.352175462080917E+08, -1.872201397683847E+08, 3.033231456460817E+07,
2460350.500000000, A.D. 2024-Feb-10 00:00:00.0000, 2.429887481892188E+08, -1.762284215844504E+08, 3.039174917836972E+07,
2460357.500000000, A.D. 2024-Feb-17 00:00:00.0000, 2.503304796986860E+08, -1.649252479160856E+08, 3.039746826677074E+07,
2460364.500000000, A.D. 2024-Feb-24 00:00:00.0000, 2.572280551074555E+08, -1.533294640247807E+08, 3.034925406295489E+07,
2460371.500000000, A.D. 2024-Mar-02 00:00:00.0000, 2.636677825747283E+08, -1.414607719784627E+08, 3.024702054509006E+07,
2460378.500000000, A.D. 2024-Mar-09 00:00:00.0000, 2.696370282777082E+08, -1.293396638892626E+08, 3.009081517809018E+07,
2460385.500000000, A.D. 2024-Mar-16 00:00:00.0000, 2.751242754127326E+08, -1.169873491754656E+08, 2.988081978702923E+07,
2460392.500000000, A.D. 2024-Mar-23 00:00:00.0000, 2.801191772111107E+08, -1.044256753609360E+08, 2.961735064304483E+07,
2460399.500000000, A.D. 2024-Mar-30 00:00:00.0000, 2.846126011591764E+08, -9.167704315882905E+07, 2.930085795924271E+07,
2460406.500000000, A.D. 2024-Apr-06 00:00:00.0000, 2.885966641878608E+08, -7.876432000223383E+07, 2.893192449909341E+07,
2460413.500000000, A.D. 2024-Apr-13 00:00:00.0000, 2.920647619838045E+08, -6.571075202944525E+07, 2.851126304851031E+07,
2460420.500000000, A.D. 2024-Apr-20 00:00:00.0000, 2.950115911819302E+08, -5.253987272686315E+07, 2.803971307707742E+07,
2460427.500000000, A.D. 2024-Apr-27 00:00:00.0000, 2.974331627559681E+08, -3.927540968930218E+07, 2.751823671360888E+07,
2460434.500000000, A.D. 2024-May-04 00:00:00.0000, 2.993268066584995E+08, -2.594119110359167E+07, 2.694791401744574E+07,
2460441.500000000, A.D. 2024-May-11 00:00:00.0000, 3.006911680419693E+08, -1.256105295636031E+07, 2.632993757693464E+07,
2460448.500000000, A.D. 2024-May-18 00:00:00.0000, 3.015261953509534E+08, 8.412521726949271E+05, 2.566560650033741E+07,
2460455.500000000, A.D. 2024-May-25 00:00:00.0000, 3.018331206185887E+08, 1.424214387980537E+07, 2.495631987142321E+07,
2460462.500000000, A.D. 2024-Jun-01 00:00:00.0000, 3.016144324264880E+08, 2.761829942440347E+07, 2.420356973689182E+07,
2460469.500000000, A.D. 2024-Jun-08 00:00:00.0000, 3.008738422571597E+08, 4.094673519619639E+07, 2.340893368010801E+07,
2460476.500000000, A.D. 2024-Jun-15 00:00:00.0000, 2.996162451879994E+08, 5.420488407284099E+07, 2.257406706808424E+07,
2460483.500000000, A.D. 2024-Jun-22 00:00:00.0000, 2.978476745308883E+08, 6.737066930679157E+07, 2.170069524110556E+07,
2460490.500000000, A.D. 2024-Jun-29 00:00:00.0000, 2.955752489716924E+08, 8.042257267798635E+07, 2.079060577555729E+07,
2460497.500000000, A.D. 2024-Jul-06 00:00:00.0000, 2.928071155619832E+08, 9.333969407997437E+07, 1.984564045494764E+07,
2460504.500000000, A.D. 2024-Jul-13 00:00:00.0000, 2.895523912207031E+08, 1.061018050996997E+08, 1.886768707408767E+07,
2460511.500000000, A.D. 2024-Jul-20 00:00:00.0000, 2.858211014753126E+08, 1.186893975757519E+08, 1.785867142240672E+07,
2460518.500000000, A.D. 2024-Jul-27 00:00:00.0000, 2.816241164979469E+08, 1.310837261011421E+08, 1.682054949323571E+07,
2460525.500000000, A.D. 2024-Aug-03 00:00:00.0000, 2.769730854007778E+08, 1.432668441046779E+08, 1.575529992185402E+07,
2460532.500000000, A.D. 2024-Aug-10 00:00:00.0000, 2.718803696165458E+08, 1.552216335932607E+08, 1.466491668823838E+07,
2460539.500000000, A.D. 2024-Aug-17 00:00:00.0000, 2.663589760327654E+08, 1.669318287337825E+08, 1.355140212639186E+07,
2460546.500000000, A.D. 2024-Aug-24 00:00:00.0000, 2.604224904832120E+08, 1.783820334709853E+08, 1.241676027320591E+07,
2460553.500000000, A.D. 2024-Aug-31 00:00:00.0000, 2.540850122382591E+08, 1.895577333913200E+08, 1.126299057150888E+07,
2460560.500000000, A.D. 2024-Sep-07 00:00:00.0000, 2.473610903337151E+08, 2.004453022735693E+08, 1.009208192725192E+07,
2460567.500000000, A.D. 2024-Sep-14 00:00:00.0000, 2.402656622403646E+08, 2.110320046644062E+08, 8.906007209732652E+06,
2460574.500000000, A.D. 2024-Sep-21 00:00:00.0000, 2.328139931933596E+08, 2.213059952563985E+08, 7.706718423785090E+06,
2460581.500000000, A.D. 2024-Sep-28 00:00:00.0000, 2.250216159915075E+08, 2.312563122386419E+08, 6.496142340955555E+06,
2460588.500000000, A.D. 2024-Oct-05 00:00:00.0000, 2.169042751945139E+08, 2.408728650247251E+08, 5.276176252470240E+06,
2460595.500000000, A.D. 2024-Oct-12 00:00:00.0000, 2.084778755511140E+08, 2.501464197314520E+08, 4.048684113604456E+06,
2460602.500000000, A.D. 2024-Oct-19 00:00:00.0000, 1.997584330465384E+08, 2.590685825322063E+08, 2.815493208131567E+06,
2460609.500000000, A.D. 2024-Oct-26 00:00:00.0000, 1.907620286348194E+08, 2.676317804725846E+08, 1.578391257467762E+06,
2460616.500000000, A.D. 2024-Nov-02 00:00:00.0000, 1.815047649711580E+08, 2.758292399749649E+08, 3.391239228840172E+05,
2460623.500000000, A.D. 2024-Nov-09 00:00:00.0000, 1.720027262614598E+08, 2.836549634094685E+08, -9.006073246803433E+05,
2460630.500000000, A.D. 2024-Nov-16 00:00:00.0000, 1.622719412415764E+08, 2.911037040669125E+08, -2.139146989572838E+06,
2460637.500000000, A.D. 2024-Nov-23 00:00:00.0000, 1.523283492890831E+08, 2.981709397959480E+08, -3.374887020610839E+06,
2460644.500000000, A.D. 2024-Nov-30 00:00:00.0000, 1.421877698043319E+08, 3.048528455511774E+08, -4.606268008619964E+06,
2460651.500000000, A.D. 2024-Dec-07 00:00:00.0000, 1.318658751866971E+08, 3.111462655424598E+08, -5.831780138250187E+06,
2460658.500000000, A.D. 2024-Dec-14 00:00:00.0000, 1.213781666096401E+08, 3.170486864569793E+08, -7.049963753319681E+06,
2460665.500000000, A.D. 2024-Dec-21 00:00:00.0000, 1.107399501516966E+08, 3.225582107313357E+08, -8.259409446087465E+06,
2460672.500000000, A.D. 2024-Dec-28 00:00:00.0000, 9.996631511786321E+07, 3.276735271128691E+08, -9.458758114288479E+06,
2460679.500000000, A.D. 2025-Jan-04 00:00:00.0000, 8.907211701967978E+07, 3.323938810791575E+08, -1.064670105241171E+07,
2460686.500000000, A.D. 2025-Jan-11 00:00:00.0000, 7.807196326191925E+07, 3.367190469291477E+08, -1.182197979663213E+07,
2460693.500000000, A.D. 2025-Jan-18 00:00:00.0000, 6.698020047880519E+07, 3.406493007520273E+08, -1.298338573418400E+07,
2460700.500000000, A.D. 2025-Jan-25 00:00:00.0000, 5.581090361866448E+07, 3.441853939028866E+08, -1.412975955615342E+07,
2460707.500000000, A.D. 2025-Feb-01 00:00:00.0000, 4.457786681754971E+07, 3.473285270413264E+08, -1.525999058936620E+07,
2460714.500000000, A.D. 2025-Feb-08 00:00:00.0000, 3.329459597000946E+07, 3.500803248292389E+08, -1.637301602564827E+07,
$$EOE